#aV2015 10 19  0  0  0.00000000     288 DD+AD WGS84 FIT  NGA
## 1867  86400.00000000   300.00000000 57314 0.0000000000000
+   31     1  2  3  4  5  6  7  8  9 11 12 13 14 15 16 17 18
+         19 20 21 22 23 24 25 26 27 28 29 30 31 32  0  0  0
+          0  0  0  0  0  0  0  0  0  0  0  0  0  0  0  0  0
+          0  0  0  0  0  0  0  0  0  0  0  0  0  0  0  0  0
+          0  0  0  0  0  0  0  0  0  0  0  0  0  0  0  0  0
++         2  2  2  2  2  2  2  2  2  2  2  2  2  2  2  2  2
++         2  2  2  2  2  2  2  2  2  2  2  2  2  2  0  0  0
++         0  0  0  0  0  0  0  0  0  0  0  0  0  0  0  0  0
++         0  0  0  0  0  0  0  0  0  0  0  0  0  0  0  0  0
++         0  0  0  0  0  0  0  0  0  0  0  0  0  0  0  0  0
%c cc cc ccc ccc cccc cccc cccc cccc ccccc ccccc ccccc ccccc
%c cc cc ccc ccc cccc cccc cccc cccc ccccc ccccc ccccc ccccc
%f  0.0000000  0.000000000  0.00000000000  0.000000000000000
%f  0.0000000  0.000000000  0.00000000000  0.000000000000000
%i    0    0    0    0      0      0      0      0         0
%i    0    0    0    0      0      0      0      0         0
/*      NGA, ST. LOUIS,MO.                                  
/*   EPHEMERIS COMPUTED FROM 2 DAYS OF DATA                 
/*   EPOCHA v2.4 SMOOTHER                                   
/*   G1762 IERS2010 SATAF SATAPC                            
*  2015 10 19 18 10  0.00000000
P  1  15104.569840  13401.441037 -17430.101983      2.695818                    
V  1 -21960.076011   -251.754892 -19105.269648      0.007533                    
P  2   9433.920136 -14508.085978  20427.994177    593.262886                    
V  2  25190.978211   2308.707854 -10624.480409      0.012537                    
P  3  13222.832918  22842.587449   2860.136420     19.407849                    
V  3  -1001.368716   4509.889387 -31464.981176     -0.017110                    
P  4   5088.435835  15749.840880 -21165.620190    -34.496724                    
V  4 -26094.027892   -850.853138  -6769.087649     -0.051318                    
P  5   1150.326178 -21858.500725  14843.988684   -183.445048                    
V  5  10681.882472  16002.045531  22830.922803      0.039138                    
P  6  21396.098795  -7926.212903  13582.835509     79.680106                    
V  6  17050.484739   3419.182772 -24867.188565      0.069887                    
P  7  25511.366251   6223.468005   5327.944226    482.511160                    
V  7  -6706.890284   1500.072982  30724.509423     -0.008806                    
P  8  -1361.128853  21458.152418 -15554.049993     -9.300651                    
V  8 -12727.038650  15334.905373  22191.271647     -0.013593                    
P  9  15678.974060   3426.793562  21157.790087     -0.764013                    
V  9 -14479.353919  22673.855555   7042.275829      0.040563                    
P 11  10254.374146  14206.362405 -20529.439542   -611.145246                    
V 11 -23899.038500   7883.195976  -6582.284697     -0.023522                    
P 12 -10603.716661 -24474.135929    365.416937    338.208134                    
V 12   1335.434637  -1203.213553 -32250.069517      0.032557                    
P 13  11080.332130 -22452.147620  -9152.909901   -157.926541                    
V 13   9014.200879  -7269.160784  29063.341454     -0.028602                    
P 14 -20210.494008  11482.688439 -12457.531416     27.147595                    
V 14   8311.766480 -14187.706184 -26181.409884     -0.024092                    
P 15  -1411.667162 -20897.511324 -16238.091231   -277.684803                    
V 15  12926.878910 -16312.341596  20329.604607     -0.019983                    
P 16  -2447.155673  21188.029320  15500.336441    -74.908022                    
V 16  -8882.923635 -17902.043575  23304.978351      0.037704                    
P 17  19708.594507 -12328.114371 -12338.731076   -191.472878                    
V 17  -7943.644145  14310.810770 -26543.162605     -0.011149                    
P 18 -18522.597495  -9193.281573 -16310.437804    444.550275                    
V 18  -7706.670686 -20405.952040  19367.018428      0.036808                    
P 19  11357.940390   9957.396634 -22081.569701   -521.723403                    
V 19 -17694.116799  20982.807455    786.867893     -0.004814                    
P 20 -12856.262698 -23178.129360    692.757501    364.382579                    
V 20   3969.973770  -1068.576028  31006.158608      0.029600                    
P 21 -26408.587462  -3556.018855   2878.910863   -487.806176                    
V 21   2960.430351  -3141.357916  30680.009474     -0.025696                    
P 22 -14935.525348   5673.414909 -20988.728064    402.378139                    
V 22 -12291.359971 -24432.624489   1941.914081      0.034274                    
P 23   6971.180239  15687.355651  20327.004820   -139.732660                    
V 23 -15514.471761  20399.248242 -10940.812517     -0.021270                    
P 24 -12371.870333 -14152.977750 -18860.243155     -6.586160                    
V 24  23894.150936    -97.872623 -15465.124772     -0.006684                    
P 25 -16911.531715 -16732.342299  11881.989054    -54.807421                    
V 25  -4942.990918 -14438.859900 -26976.872168     -0.055027                    
P 26  -9417.541899  13711.215086  20704.183256    -89.964801                    
V 26 -12301.972882 -23253.131755   9813.799103     -0.135860                    
P 27 -10922.720451  23411.680604  -5908.239890     28.840469                    
V 27  -6317.609164   4767.210480  30825.568056      0.030910                    
P 28  14909.179891   -451.369748 -21361.355423    475.539619                    
V 28  10101.994806  26696.923855   6227.890950      0.025724                    
P 29 -13574.001183  -6642.389175  21852.246434    640.358298                    
V 29  16578.528338 -22161.518787   3598.424703      0.019491                    
P 30  25929.294908   -423.401094  -5937.829880     43.677629                    
V 30   7034.052048   3913.969426  30350.621947      0.060894                    
P 31 -21115.461478   7678.766607  14558.805723    298.593055                    
V 31 -17830.398781  -3489.073992 -23900.374040     -0.014271                    
P 32   3871.906791  25428.832000  -7719.634618     -9.403417                    
V 32  -5876.804895  -8024.362596 -29059.572180      0.115653                    
EOF
